CTC1_L_00431001-01
1 10000U 23941UD  26075.70034722  .00000000  00000+0  00000-0 0  9994
2 10000  60.0000   0.0000 0000000   0.0000   0.0000 12.53473438    10
CTC1_L_00431001-02
1 10001U 26628KB  26075.70034722  .00000000  00000+0  00000-0 0  9990
2 10001  60.0000   0.0000 0000000   0.0000  90.0000 12.53473438    10
CTC1_L_00431001-03
1 10002U 25368PN  26075.70034722  .00000000  00000+0  00000-0 0  9991
2 10002  60.0000   0.0000 0000000   0.0000 180.0000 12.53473438    11
CTC1_L_00431001-04
1 10003U 24192CL  26075.70034722  .00000000  00000+0  00000-0 0  9996
2 10003  60.0000   0.0000 0000000   0.0000 270.0000 12.53473438    12
CTC1_L_00431002-01
1 10004U 26512MA  26075.70034722  .00000000  00000+0  00000-0 0  9995
2 10004  60.0000  12.0000 0000000   0.0000  12.0000 12.53473438    10
CTC1_L_00431002-02
1 10005U 25497BH  26075.70034722  .00000000  00000+0  00000-0 0  9997
2 10005  60.0000  12.0000 0000000   0.0000 102.0000 12.53473438    11
CTC1_L_00431002-03
1 10006U 26375AD  26075.70034722  .00000000  00000+0  00000-0 0  9994
2 10006  60.0000  12.0000 0000000   0.0000 192.0000 12.53473438    11
CTC1_L_00431002-04
1 10007U 26539BA  26075.70034722  .00000000  00000+0  00000-0 0  9997
2 10007  60.0000  12.0000 0000000   0.0000 282.0000 12.53473438    12
CTC1_L_00431003-01
1 10008U 22809AH  26075.70034722  .00000000  00000+0  00000-0 0  9994
2 10008  60.0000  24.0000 0000000   0.0000  24.0000 12.53473438    10
CTC1_L_00431003-02
1 10009U 22434RF  26075.70034722  .00000000  00000+0  00000-0 0  9999
2 10009  60.0000  24.0000 0000000   0.0000 114.0000 12.53473438    11
CTC1_L_00431003-03
1 10010U 23706YP  26075.70034722  .00000000  00000+0  00000-0 0  9994
2 10010  60.0000  24.0000 0000000   0.0000 204.0000 12.53473438    13
CTC1_L_00431003-04
1 10011U 25575VZ  26075.70034722  .00000000  00000+0  00000-0 0  9991
2 10011  60.0000  24.0000 0000000   0.0000 294.0000 12.53473438    13
CTC1_L_00431004-01
1 10012U 22380NR  26075.70034722  .00000000  00000+0  00000-0 0  9993
2 10012  60.0000  36.0000 0000000   0.0000  36.0000 12.53473438    11
CTC1_L_00431004-02
1 10013U 25878DI  26075.70034722  .00000000  00000+0  00000-0 0  9999
2 10013  60.0000  36.0000 0000000   0.0000 126.0000 12.53473438    12
CTC1_L_00431004-03
1 10014U 22784IY  26075.70034722  .00000000  00000+0  00000-0 0  9993
2 10014  60.0000  36.0000 0000000   0.0000 216.0000 12.53473438    13
CTC1_L_00431004-04
1 10015U 23157UD  26075.70034722  .00000000  00000+0  00000-0 0  9999
2 10015  60.0000  36.0000 0000000   0.0000 306.0000 12.53473438    14
CTC1_L_00431005-01
1 10016U 26118IO  26075.70034722  .00000000  00000+0  00000-0 0  9990
2 10016  60.0000  48.0000 0000000   0.0000  48.0000 12.53473438    11
CTC1_L_00431005-02
1 10017U 26542OJ  26075.70034722  .00000000  00000+0  00000-0 0  9992
2 10017  60.0000  48.0000 0000000   0.0000 138.0000 12.53473438    12
CTC1_L_00431005-03
1 10018U 26763VR  26075.70034722  .00000000  00000+0  00000-0 0  9998
2 10018  60.0000  48.0000 0000000   0.0000 228.0000 12.53473438    13
CTC1_L_00431005-04
1 10019U 24228FV  26075.70034722  .00000000  00000+0  00000-0 0  9993
2 10019  60.0000  48.0000 0000000   0.0000 318.0000 12.53473438    14
CTC1_L_00431006-01
1 10020U 23502LD  26075.70034722  .00000000  00000+0  00000-0 0  9999
2 10020  60.0000  60.0000 0000000   0.0000  60.0000 12.53473438    14
CTC1_L_00431006-02
1 10021U 22890VA  26075.70034722  .00000000  00000+0  00000-0 0  9999
2 10021  60.0000  60.0000 0000000   0.0000 150.0000 12.53473438    15
CTC1_L_00431006-03
1 10022U 24952XZ  26075.70034722  .00000000  00000+0  00000-0 0  9991
2 10022  60.0000  60.0000 0000000   0.0000 240.0000 12.53473438    16
CTC1_L_00431006-04
1 10023U 25914NT  26075.70034722  .00000000  00000+0  00000-0 0  9991
2 10023  60.0000  60.0000 0000000   0.0000 330.0000 12.53473438    17
CTC1_L_00431007-01
1 10024U 22568XG  26075.70034722  .00000000  00000+0  00000-0 0  9994
2 10024  60.0000  72.0000 0000000   0.0000  72.0000 12.53473438    14
CTC1_L_00431007-02
1 10025U 26630LU  26075.70034722  .00000000  00000+0  00000-0 0  9999
2 10025  60.0000  72.0000 0000000   0.0000 162.0000 12.53473438    15
CTC1_L_00431007-03
1 10026U 24940HO  26075.70034722  .00000000  00000+0  00000-0 0  9992
2 10026  60.0000  72.0000 0000000   0.0000 252.0000 12.53473438    16
CTC1_L_00431007-04
1 10027U 22309ZP  26075.70034722  .00000000  00000+0  00000-0 0  9990
2 10027  60.0000  72.0000 0000000   0.0000 342.0000 12.53473438    17
CTC1_L_00431008-01
1 10028U 26585TC  26075.70034722  .00000000  00000+0  00000-0 0  9991
2 10028  60.0000  84.0000 0000000   0.0000  84.0000 12.53473438    14
CTC1_L_00431008-02
1 10029U 25352BM  26075.70034722  .00000000  00000+0  00000-0 0  9993
2 10029  60.0000  84.0000 0000000   0.0000 174.0000 12.53473438    15
CTC1_L_00431008-03
1 10030U 24036GG  26075.70034722  .00000000  00000+0  00000-0 0  9993
2 10030  60.0000  84.0000 0000000   0.0000 264.0000 12.53473438    17
CTC1_L_00431008-04
1 10031U 26947PM  26075.70034722  .00000000  00000+0  00000-0 0  9997
2 10031  60.0000  84.0000 0000000   0.0000 354.0000 12.53473438    18
CTC1_L_00431009-01
1 10032U 24853HW  26075.70034722  .00000000  00000+0  00000-0 0  9992
2 10032  60.0000  96.0000 0000000   0.0000  96.0000 12.53473438    15
CTC1_L_00431009-02
1 10033U 23124NL  26075.70034722  .00000000  00000+0  00000-0 0  9993
2 10033  60.0000  96.0000 0000000   0.0000 186.0000 12.53473438    16
CTC1_L_00431009-03
1 10034U 23845DO  26075.70034722  .00000000  00000+0  00000-0 0  9994
2 10034  60.0000  96.0000 0000000   0.0000 276.0000 12.53473438    17
CTC1_L_00431009-04
1 10035U 25892SN  26075.70034722  .00000000  00000+0  00000-0 0  9999
2 10035  60.0000  96.0000 0000000   0.0000   6.0000 12.53473438    19
CTC1_L_00431010-01
1 10036U 23862CX  26075.70034722  .00000000  00000+0  00000-0 0  9995
2 10036  60.0000 108.0000 0000000   0.0000 108.0000 12.53473438    17
CTC1_L_00431010-02
1 10037U 26544MY  26075.70034722  .00000000  00000+0  00000-0 0  9996
2 10037  60.0000 108.0000 0000000   0.0000 198.0000 12.53473438    17
CTC1_L_00431010-03
1 10038U 24738AS  26075.70034722  .00000000  00000+0  00000-0 0  9990
2 10038  60.0000 108.0000 0000000   0.0000 288.0000 12.53473438    18
CTC1_L_00431010-04
1 10039U 25906WD  26075.70034722  .00000000  00000+0  00000-0 0  9999
2 10039  60.0000 108.0000 0000000   0.0000  18.0000 12.53473438    10
CTC1_L_00431011-01
1 10040U 24912XQ  26075.70034722  .00000000  00000+0  00000-0 0  9997
2 10040  60.0000 120.0000 0000000   0.0000 120.0000 12.53473438    10
CTC1_L_00431011-02
1 10041U 23248AI  26075.70034722  .00000000  00000+0  00000-0 0  9999
2 10041  60.0000 120.0000 0000000   0.0000 210.0000 12.53473438    11
CTC1_L_00431011-03
1 10042U 22220XW  26075.70034722  .00000000  00000+0  00000-0 0  9999
2 10042  60.0000 120.0000 0000000   0.0000 300.0000 12.53473438    12
CTC1_L_00431011-04
1 10043U 24693CB  26075.70034722  .00000000  00000+0  00000-0 0  9996
2 10043  60.0000 120.0000 0000000   0.0000  30.0000 12.53473438    13
CTC1_L_00431012-01
1 10044U 25117ZF  26075.70034722  .00000000  00000+0  00000-0 0  9999
2 10044  60.0000 132.0000 0000000   0.0000 132.0000 12.53473438    10
CTC1_L_00431012-02
1 10045U 25584ZU  26075.70034722  .00000000  00000+0  00000-0 0  9998
2 10045  60.0000 132.0000 0000000   0.0000 222.0000 12.53473438    11
CTC1_L_00431012-03
1 10046U 22120MM  26075.70034722  .00000000  00000+0  00000-0 0  9992
2 10046  60.0000 132.0000 0000000   0.0000 312.0000 12.53473438    12
CTC1_L_00431012-04
1 10047U 24465RT  26075.70034722  .00000000  00000+0  00000-0 0  9997
2 10047  60.0000 132.0000 0000000   0.0000  42.0000 12.53473438    13
CTC1_L_00431013-01
1 10048U 22626OY  26075.70034722  .00000000  00000+0  00000-0 0  9995
2 10048  60.0000 144.0000 0000000   0.0000 144.0000 12.53473438    10
CTC1_L_00431013-02
1 10049U 26617ZZ  26075.70034722  .00000000  00000+0  00000-0 0  9990
2 10049  60.0000 144.0000 0000000   0.0000 234.0000 12.53473438    11
CTC1_L_00431013-03
1 10050U 25687QQ  26075.70034722  .00000000  00000+0  00000-0 0  9998
2 10050  60.0000 144.0000 0000000   0.0000 324.0000 12.53473438    13
CTC1_L_00431013-04
1 10051U 26465BY  26075.70034722  .00000000  00000+0  00000-0 0  9994
2 10051  60.0000 144.0000 0000000   0.0000  54.0000 12.53473438    14
CTC1_L_00431014-01
1 10052U 23708OV  26075.70034722  .00000000  00000+0  00000-0 0  9992
2 10052  60.0000 156.0000 0000000   0.0000 156.0000 12.53473438    11
CTC1_L_00431014-02
1 10053U 23841UD  26075.70034722  .00000000  00000+0  00000-0 0  9991
2 10053  60.0000 156.0000 0000000   0.0000 246.0000 12.53473438    12
CTC1_L_00431014-03
1 10054U 22052DH  26075.70034722  .00000000  00000+0  00000-0 0  9995
2 10054  60.0000 156.0000 0000000   0.0000 336.0000 12.53473438    13
CTC1_L_00431014-04
1 10055U 22710JE  26075.70034722  .00000000  00000+0  00000-0 0  9997
2 10055  60.0000 156.0000 0000000   0.0000  66.0000 12.53473438    14
CTC1_L_00431015-01
1 10056U 25348IJ  26075.70034722  .00000000  00000+0  00000-0 0  9998
2 10056  60.0000 168.0000 0000000   0.0000 168.0000 12.53473438    11
CTC1_L_00431015-02
1 10057U 22272EU  26075.70034722  .00000000  00000+0  00000-0 0  9992
2 10057  60.0000 168.0000 0000000   0.0000 258.0000 12.53473438    12
CTC1_L_00431015-03
1 10058U 24236DB  26075.70034722  .00000000  00000+0  00000-0 0  9995
2 10058  60.0000 168.0000 0000000   0.0000 348.0000 12.53473438    13
CTC1_L_00431015-04
1 10059U 25691QW  26075.70034722  .00000000  00000+0  00000-0 0  9992
2 10059  60.0000 168.0000 0000000   0.0000  78.0000 12.53473438    14
CTC1_L_00431016-01
1 10060U 25744TZ  26075.70034722  .00000000  00000+0  00000-0 0  9993
2 10060  60.0000 180.0000 0000000   0.0000 180.0000 12.53473438    14
CTC1_L_00431016-02
1 10061U 22020FR  26075.70034722  .00000000  00000+0  00000-0 0  9998
2 10061  60.0000 180.0000 0000000   0.0000 270.0000 12.53473438    15
